TIANMU-1 10             
1 57402U 23101D   26065.62577839  .00009608  00000+0  34185-3 0  9997
2 57402  97.2753 118.8383 0006719 143.1174 217.0530 15.29152994145969
FENGYUN 3F              
1 57490U 23111A   26065.65793463  .00000113  00000+0  73709-4 0  9999
2 57490  98.6934 137.5414 0001297  80.6830 279.4493 14.19918686134318
ARKTIKA-M 2             
1 58584U 23198A   26064.07652728  .00000150  00000+0  00000+0 0  9992
2 58584  63.2186 165.9003 6877723 267.7621  18.8474  2.00612038 16239
TIANMU-1 11             
1 58645U 23205A   26065.59272650  .00008259  00000+0  32520-3 0  9993
2 58645  97.3546  88.7935 0009370  18.9697 341.1889 15.25829556121874
TIANMU-1 12             
1 58646U 23205B   26065.62499860  .00008119  00000+0  32062-3 0  9998
2 58646  97.3534  88.6050 0007149   5.3474 354.7839 15.25753898121863
TIANMU-1 13             
1 58647U 23205C   26065.59041427  .00008409  00000+0  33150-3 0  9998
2 58647  97.3562  88.8084 0006801 345.6370  14.4674 15.25803137121851
TIANMU-1 14             
1 58648U 23205D   26065.57493641  .00007691  00000+0  30362-3 0  9990
2 58648  97.3497  88.0648 0007698 349.0441  11.0629 15.25779398121853
TIANMU-1 19             
1 58660U 23208A   26065.59020106  .00011553  00000+0  40324-3 0  9992
2 58660  97.4388 181.5742 0004119 330.7042  29.3967 15.29751409121630
TIANMU-1 20             
1 58661U 23208B   26065.57692135  .00011258  00000+0  37878-3 0  9990
2 58661  97.4328 182.0914 0006427 337.7841  22.3121 15.30940502121710
TIANMU-1 21             
1 58662U 23208C   26065.57950956  .00013197  00000+0  41680-3 0  9999
2 58662  97.4383 184.3567 0006196 330.8123  29.2772 15.32938479121834
TIANMU-1 22             
1 58663U 23208D   26065.60706859  .00011907  00000+0  42033-3 0  9995
2 58663  97.4383 181.6041 0003399   4.7592 355.3680 15.29375676121641
TIANMU-1 15             
1 58700U 24004A   26065.63827545  .00008402  00000+0  33152-3 0  9999
2 58700  97.4666 251.8805 0006923   1.0008 359.1242 15.25779621120136
TIANMU-1 16             
1 58701U 24004B   26065.62182919  .00008670  00000+0  34173-3 0  9999
2 58701  97.4608 251.1894 0005465   7.1946 352.9369 15.25813279120131
TIANMU-1 17             
1 58702U 24004C   26065.60423368  .00008674  00000+0  34156-3 0  9999
2 58702  97.4640 251.6241 0004705  10.7027 349.4310 15.25848436120124
TIANMU-1 18             
1 58703U 24004D   26065.65487758  .00009039  00000+0  35634-3 0  9996
2 58703  97.4657 251.8857 0004109  12.0030 348.1305 15.25799577120137
INSAT-3DS               
1 58990U 24033A   26065.60322447 -.00000159  00000+0  00000+0 0  9994
2 58990   0.0500 260.9737 0002334 101.3712 101.1819  1.00270259 46039
METEOR-M2 4             
1 59051U 24039A   26065.62440145  .00000056  00000+0  44720-4 0  9994
2 59051  98.6902  26.2754 0008126 104.0097 256.1985 14.22416528104680
