[{"OBJECT_NAME":"TIANMU-1 10","OBJECT_ID":"2023-101D","EPOCH":"2026-03-06T15:01:07.252896","MEAN_MOTION":15.29152994,"ECCENTRICITY":0.00067192,"INCLINATION":97.2753,"RA_OF_ASC_NODE":118.8383,"ARG_OF_PERICENTER":143.1174,"MEAN_ANOMALY":217.053,"EPHEMERIS_TYPE":0,"CLASSIFICATION_TYPE":"U","NORAD_CAT_ID":57402,"ELEMENT_SET_NO":999,"REV_AT_EPOCH":14596,"BSTAR":0.00034185074,"MEAN_MOTION_DOT":9.608e-5,"MEAN_MOTION_DDOT":0},{"OBJECT_NAME":"FENGYUN 3F","OBJECT_ID":"2023-111A","EPOCH":"2026-03-06T15:47:25.552032","MEAN_MOTION":14.19918686,"ECCENTRICITY":0.00012973,"INCLINATION":98.6934,"RA_OF_ASC_NODE":137.5414,"ARG_OF_PERICENTER":80.683,"MEAN_ANOMALY":279.4493,"EPHEMERIS_TYPE":0,"CLASSIFICATION_TYPE":"U","NORAD_CAT_ID":57490,"ELEMENT_SET_NO":999,"REV_AT_EPOCH":13431,"BSTAR":7.3709021e-5,"MEAN_MOTION_DOT":1.13e-6,"MEAN_MOTION_DDOT":0},{"OBJECT_NAME":"ARKTIKA-M 2","OBJECT_ID":"2023-198A","EPOCH":"2026-03-05T01:50:11.956992","MEAN_MOTION":2.00612038,"ECCENTRICITY":0.68777232,"INCLINATION":63.2186,"RA_OF_ASC_NODE":165.9003,"ARG_OF_PERICENTER":267.7621,"MEAN_ANOMALY":18.8474,"EPHEMERIS_TYPE":0,"CLASSIFICATION_TYPE":"U","NORAD_CAT_ID":58584,"ELEMENT_SET_NO":999,"REV_AT_EPOCH":1623,"BSTAR":0,"MEAN_MOTION_DOT":1.5e-6,"MEAN_MOTION_DDOT":0},{"OBJECT_NAME":"TIANMU-1 11","OBJECT_ID":"2023-205A","EPOCH":"2026-03-06T14:13:31.569600","MEAN_MOTION":15.25829556,"ECCENTRICITY":0.000937,"INCLINATION":97.3546,"RA_OF_ASC_NODE":88.7935,"ARG_OF_PERICENTER":18.9697,"MEAN_ANOMALY":341.1889,"EPHEMERIS_TYPE":0,"CLASSIFICATION_TYPE":"U","NORAD_CAT_ID":58645,"ELEMENT_SET_NO":999,"REV_AT_EPOCH":12187,"BSTAR":0.00032519618,"MEAN_MOTION_DOT":8.259e-5,"MEAN_MOTION_DDOT":0},{"OBJECT_NAME":"TIANMU-1 12","OBJECT_ID":"2023-205B","EPOCH":"2026-03-06T14:59:59.879040","MEAN_MOTION":15.25753898,"ECCENTRICITY":0.00071499,"INCLINATION":97.3534,"RA_OF_ASC_NODE":88.605,"ARG_OF_PERICENTER":5.3474,"MEAN_ANOMALY":354.7839,"EPHEMERIS_TYPE":0,"CLASSIFICATION_TYPE":"U","NORAD_CAT_ID":58646,"ELEMENT_SET_NO":999,"REV_AT_EPOCH":12186,"BSTAR":0.00032061689,"MEAN_MOTION_DOT":8.119e-5,"MEAN_MOTION_DDOT":0},{"OBJECT_NAME":"TIANMU-1 13","OBJECT_ID":"2023-205C","EPOCH":"2026-03-06T14:10:11.792928","MEAN_MOTION":15.25803137,"ECCENTRICITY":0.00068019,"INCLINATION":97.3562,"RA_OF_ASC_NODE":88.8084,"ARG_OF_PERICENTER":345.637,"MEAN_ANOMALY":14.4674,"EPHEMERIS_TYPE":0,"CLASSIFICATION_TYPE":"U","NORAD_CAT_ID":58647,"ELEMENT_SET_NO":999,"REV_AT_EPOCH":12185,"BSTAR":0.00033150328,"MEAN_MOTION_DOT":8.409e-5,"MEAN_MOTION_DDOT":0},{"OBJECT_NAME":"TIANMU-1 14","OBJECT_ID":"2023-205D","EPOCH":"2026-03-06T13:47:54.505824","MEAN_MOTION":15.25779398,"ECCENTRICITY":0.00076984,"INCLINATION":97.3497,"RA_OF_ASC_NODE":88.0648,"ARG_OF_PERICENTER":349.0441,"MEAN_ANOMALY":11.0629,"EPHEMERIS_TYPE":0,"CLASSIFICATION_TYPE":"U","NORAD_CAT_ID":58648,"ELEMENT_SET_NO":999,"REV_AT_EPOCH":12185,"BSTAR":0.0003036239,"MEAN_MOTION_DOT":7.691e-5,"MEAN_MOTION_DDOT":0},{"OBJECT_NAME":"TIANMU-1 19","OBJECT_ID":"2023-208A","EPOCH":"2026-03-06T14:09:53.371584","MEAN_MOTION":15.29751409,"ECCENTRICITY":0.00041194,"INCLINATION":97.4388,"RA_OF_ASC_NODE":181.5742,"ARG_OF_PERICENTER":330.7042,"MEAN_ANOMALY":29.3967,"EPHEMERIS_TYPE":0,"CLASSIFICATION_TYPE":"U","NORAD_CAT_ID":58660,"ELEMENT_SET_NO":999,"REV_AT_EPOCH":12163,"BSTAR":0.00040323601,"MEAN_MOTION_DOT":0.00011553,"MEAN_MOTION_DDOT":0},{"OBJECT_NAME":"TIANMU-1 20","OBJECT_ID":"2023-208B","EPOCH":"2026-03-06T13:50:46.004640","MEAN_MOTION":15.30940502,"ECCENTRICITY":0.00064276,"INCLINATION":97.4328,"RA_OF_ASC_NODE":182.0914,"ARG_OF_PERICENTER":337.7841,"MEAN_ANOMALY":22.3121,"EPHEMERIS_TYPE":0,"CLASSIFICATION_TYPE":"U","NORAD_CAT_ID":58661,"ELEMENT_SET_NO":999,"REV_AT_EPOCH":12171,"BSTAR":0.00037878368,"MEAN_MOTION_DOT":0.00011258,"MEAN_MOTION_DDOT":0},{"OBJECT_NAME":"TIANMU-1 21","OBJECT_ID":"2023-208C","EPOCH":"2026-03-06T13:54:29.625984","MEAN_MOTION":15.32938479,"ECCENTRICITY":0.00061969,"INCLINATION":97.4383,"RA_OF_ASC_NODE":184.3567,"ARG_OF_PERICENTER":330.8123,"MEAN_ANOMALY":29.2772,"EPHEMERIS_TYPE":0,"CLASSIFICATION_TYPE":"U","NORAD_CAT_ID":58662,"ELEMENT_SET_NO":999,"REV_AT_EPOCH":12183,"BSTAR":0.00041679869,"MEAN_MOTION_DOT":0.00013197,"MEAN_MOTION_DDOT":0},{"OBJECT_NAME":"TIANMU-1 22","OBJECT_ID":"2023-208D","EPOCH":"2026-03-06T14:34:10.726176","MEAN_MOTION":15.29375676,"ECCENTRICITY":0.00033994,"INCLINATION":97.4383,"RA_OF_ASC_NODE":181.6041,"ARG_OF_PERICENTER":4.7592,"MEAN_ANOMALY":355.368,"EPHEMERIS_TYPE":0,"CLASSIFICATION_TYPE":"U","NORAD_CAT_ID":58663,"ELEMENT_SET_NO":999,"REV_AT_EPOCH":12164,"BSTAR":0.00042032562,"MEAN_MOTION_DOT":0.00011907,"MEAN_MOTION_DDOT":0},{"OBJECT_NAME":"TIANMU-1 15","OBJECT_ID":"2024-004A","EPOCH":"2026-03-06T15:19:06.998880","MEAN_MOTION":15.25779621,"ECCENTRICITY":0.00069231,"INCLINATION":97.4666,"RA_OF_ASC_NODE":251.8805,"ARG_OF_PERICENTER":1.0008,"MEAN_ANOMALY":359.1242,"EPHEMERIS_TYPE":0,"CLASSIFICATION_TYPE":"U","NORAD_CAT_ID":58700,"ELEMENT_SET_NO":999,"REV_AT_EPOCH":12013,"BSTAR":0.00033151881,"MEAN_MOTION_DOT":8.402e-5,"MEAN_MOTION_DDOT":0},{"OBJECT_NAME":"TIANMU-1 16","OBJECT_ID":"2024-004B","EPOCH":"2026-03-06T14:55:26.042016","MEAN_MOTION":15.25813279,"ECCENTRICITY":0.00054658,"INCLINATION":97.4608,"RA_OF_ASC_NODE":251.1894,"ARG_OF_PERICENTER":7.1946,"MEAN_ANOMALY":352.9369,"EPHEMERIS_TYPE":0,"CLASSIFICATION_TYPE":"U","NORAD_CAT_ID":58701,"ELEMENT_SET_NO":999,"REV_AT_EPOCH":12013,"BSTAR":0.00034173324,"MEAN_MOTION_DOT":8.67e-5,"MEAN_MOTION_DDOT":0},{"OBJECT_NAME":"TIANMU-1 17","OBJECT_ID":"2024-004C","EPOCH":"2026-03-06T14:30:05.789952","MEAN_MOTION":15.25848436,"ECCENTRICITY":0.00047051,"INCLINATION":97.464,"RA_OF_ASC_NODE":251.6241,"ARG_OF_PERICENTER":10.7027,"MEAN_ANOMALY":349.431,"EPHEMERIS_TYPE":0,"CLASSIFICATION_TYPE":"U","NORAD_CAT_ID":58702,"ELEMENT_SET_NO":999,"REV_AT_EPOCH":12012,"BSTAR":0.00034155773,"MEAN_MOTION_DOT":8.674e-5,"MEAN_MOTION_DDOT":0},{"OBJECT_NAME":"TIANMU-1 18","OBJECT_ID":"2024-004D","EPOCH":"2026-03-06T15:43:01.422912","MEAN_MOTION":15.25799577,"ECCENTRICITY":0.00041099,"INCLINATION":97.4657,"RA_OF_ASC_NODE":251.8857,"ARG_OF_PERICENTER":12.003,"MEAN_ANOMALY":348.1305,"EPHEMERIS_TYPE":0,"CLASSIFICATION_TYPE":"U","NORAD_CAT_ID":58703,"ELEMENT_SET_NO":999,"REV_AT_EPOCH":12013,"BSTAR":0.00035634318,"MEAN_MOTION_DOT":9.039e-5,"MEAN_MOTION_DDOT":0},{"OBJECT_NAME":"INSAT-3DS","OBJECT_ID":"2024-033A","EPOCH":"2026-03-06T14:28:38.594208","MEAN_MOTION":1.00270259,"ECCENTRICITY":0.00023344,"INCLINATION":0.05,"RA_OF_ASC_NODE":260.9737,"ARG_OF_PERICENTER":101.3712,"MEAN_ANOMALY":101.1819,"EPHEMERIS_TYPE":0,"CLASSIFICATION_TYPE":"U","NORAD_CAT_ID":58990,"ELEMENT_SET_NO":999,"REV_AT_EPOCH":4603,"BSTAR":0,"MEAN_MOTION_DOT":-1.59e-6,"MEAN_MOTION_DDOT":0},{"OBJECT_NAME":"METEOR-M2 4","OBJECT_ID":"2024-039A","EPOCH":"2026-03-06T14:59:08.285280","MEAN_MOTION":14.22416528,"ECCENTRICITY":0.00081268,"INCLINATION":98.6902,"RA_OF_ASC_NODE":26.2754,"ARG_OF_PERICENTER":104.0097,"MEAN_ANOMALY":256.1985,"EPHEMERIS_TYPE":0,"CLASSIFICATION_TYPE":"U","NORAD_CAT_ID":59051,"ELEMENT_SET_NO":999,"REV_AT_EPOCH":10468,"BSTAR":4.4720011e-5,"MEAN_MOTION_DOT":5.6e-7,"MEAN_MOTION_DDOT":0}]
